{
  "type": "FeatureCollection",
  "name": "Fazenda Santa Maria - Talhões de Milho e Soja",
  "crs": { "type": "name", "properties": { "name": "urn:ogc:def:crs:OGC:1.3:CRS84" } },
  "features": [
    {
      "type": "Feature",
      "properties": {
        "id": "talhao-01",
        "nome": "Talhão 01 - Pivot Central",
        "cultura": "Soja M-SOY 8372",
        "area_ha": 145.8,
        "municipio": "Sorriso - MT"
      },
      "geometry": {
        "type": "Polygon",
        "coordinates": [
          [
            [-55.7250, -12.5400],
            [-55.7150, -12.5400],
            [-55.7150, -12.5500],
            [-55.7250, -12.5500],
            [-55.7250, -12.5400]
          ]
        ]
      }
    },
    {
      "type": "Feature",
      "properties": {
        "id": "talhao-02",
        "nome": "Talhão 02 - Reserva Legal APP",
        "cultura": "Vegetação Nativa Cerrado",
        "area_ha": 320.4,
        "municipio": "Sorriso - MT"
      },
      "geometry": {
        "type": "Polygon",
        "coordinates": [
          [
            [-55.7150, -12.5400],
            [-55.7000, -12.5400],
            [-55.7000, -12.5550],
            [-55.7150, -12.5550],
            [-55.7150, -12.5400]
          ]
        ]
      }
    }
  ]
}
